ONEWEB-0228             
1 48780U 21045P   24294.28634151 -.00000005  00000+0 -47245-4 0  9992
2 48780  87.9122  19.5753 0001958 101.6850 258.4500 13.15550630164792
